STARLINK-35699          
1 66557U 25268A   26068.15870069  .00034382  00000+0  12540-2 0  9993
2 66557  43.0027 350.4930 0001755 256.2018 103.8638 15.27557802 17877
PELICAN-6               
1 66703U 25276AP  26068.70709364  .00077979  00000+0  29726-2 0  9998
2 66703  97.4276 144.2072 0003569 157.8575 202.2819 15.26377980 15334
